<?xml version="1.0" encoding="ISO-8859-1"?><cdm xmlns:ndm="urn:ccsds:recommendation:navigation:schema:ndmxml" xmlns:xsi="http://www.w3.org/2001/XMLSchema-instance" id="CCSDS_CDM_VERS" version="1.0" xsi:noNamespaceSchemaLocation="http://sanaregistry.org/r/ndmxml/ndmxml-1.0-master.xsd"><header><COMMENT>Secondary = Almanac; Radius = DISCOS</COMMENT><COMMENT>EVENT_ID:CA-24001A-90094A-202312021836</COMMENT><CREATION_DATE>2023-11-28T03:10:30.600</CREATION_DATE><ORIGINATOR>CAESAR</ORIGINATOR><MESSAGE_FOR>SAT_1</MESSAGE_FOR><MESSAGE_ID>ALM_GEO_16139783</MESSAGE_ID></header><body><relativeMetadataData><TCA>2023-12-02T18:37:14.729</TCA><MISS_DISTANCE units="m">4957.720483960714</MISS_DISTANCE><RELATIVE_SPEED units="m/s">725.2617029776949</RELATIVE_SPEED><relativeStateVector><RELATIVE_POSITION_R units="m">606.4393638630471</RELATIVE_POSITION_R><RELATIVE_POSITION_T units="m">4885.812200248761</RELATIVE_POSITION_T><RELATIVE_POSITION_N units="m">583.1490709427607</RELATIVE_POSITION_N><RELATIVE_VELOCITY_R units="m/s">-0.5147567860769862</RELATIVE_VELOCITY_R><RELATIVE_VELOCITY_T units="m/s">-85.91489390486022</RELATIVE_VELOCITY_T><RELATIVE_VELOCITY_N units="m/s">720.1547776949577</RELATIVE_VELOCITY_N></relativeStateVector><START_SCREEN_PERIOD>2023-11-28T01:21:23.183</START_SCREEN_PERIOD><STOP_SCREEN_PERIOD>2023-12-12T01:21:23.183</STOP_SCREEN_PERIOD><SCREEN_VOLUME_FRAME>RTN</SCREEN_VOLUME_FRAME><SCREEN_VOLUME_SHAPE>ELLIPSOID</SCREEN_VOLUME_SHAPE><SCREEN_VOLUME_X units="m">50000.0</SCREEN_VOLUME_X><SCREEN_VOLUME_Y units="m">50000.0</SCREEN_VOLUME_Y><SCREEN_VOLUME_Z units="m">50000.0</SCREEN_VOLUME_Z><SCREEN_ENTRY_TIME>2023-12-02T18:36:06.127</SCREEN_ENTRY_TIME><SCREEN_EXIT_TIME>2023-12-02T18:38:23.330</SCREEN_EXIT_TIME></relativeMetadataData><segment><metadata><OBJECT>OBJECT1</OBJECT><OBJECT_DESIGNATOR>00001</OBJECT_DESIGNATOR><CATALOG_NAME>SATCAT</CATALOG_NAME><OBJECT_NAME>SAT_1</OBJECT_NAME><INTERNATIONAL_DESIGNATOR>2024-001A</INTERNATIONAL_DESIGNATOR><OBJECT_TYPE>UNKNOWN</OBJECT_TYPE><EPHEMERIS_NAME>2024-001A_SAT_1_OPER_20231124T150500_S20231124T150000_E20231227T120000.jspoc</EPHEMERIS_NAME><COVARIANCE_METHOD>CALCULATED</COVARIANCE_METHOD><MANEUVERABLE>YES</MANEUVERABLE><REF_FRAME>ITRF</REF_FRAME></metadata><data><odParameters/><additionalParameters><COMMENT>JAC_LAST_ACC_OB = N/A</COMMENT><AREA_PC units="m**2">1231.6299839133426</AREA_PC></additionalParameters><stateVector><X units="km">41841.22132485421</X><Y units="km">-5327.6058876133375</Y><Z units="km">-18.515411174212495</Z><X_DOT units="km/s">0.0017040129483189047</X_DOT><Y_DOT units="km/s">-0.0023182435721473666</Y_DOT><Z_DOT units="km/s">0.003993003716430412</Z_DOT></stateVector><covarianceMatrix><CR_R units="m**2">1317.6899999999948</CR_R><CT_R units="m**2">1.684757888753552E-11</CT_R><CT_T units="m**2">227528.43008014237</CT_T><CN_R units="m**2">-1.4210854715202004E-14</CN_R><CN_T units="m**2">-3.552713678800501E-14</CN_T><CN_N units="m**2">45329.991022677605</CN_N><CRDOT_R units="m**2/s">1.7434140340156362E-16</CRDOT_R><CRDOT_T units="m**2/s">-16.580403325273764</CRDOT_T><CRDOT_N units="m**2/s">-6.938893903907228E-18</CRDOT_N><CRDOT_RDOT units="m**2/s**2">0.0012082436218274692</CRDOT_RDOT><CTDOT_R units="m**2/s">0.0960224251975218</CTDOT_R><CTDOT_T units="m**2/s">-1.1503904519495885E-15</CTDOT_T><CTDOT_N units="m**2/s">-2.1006417091906648E-19</CTDOT_N><CTDOT_RDOT units="m**2/s**2">7.696812606126137E-20</CTDOT_RDOT><CTDOT_TDOT units="m**2/s**2">6.997325729734309E-6</CTDOT_TDOT><CNDOT_R units="m**2/s">1.5204837977615887E-19</CNDOT_R><CNDOT_T units="m**2/s">9.577470304419423E-19</CNDOT_T><CNDOT_N units="m**2/s">5.16143556581932E-22</CNDOT_N><CNDOT_RDOT units="m**2/s**2">-1.0893321816362671E-22</CNDOT_RDOT><CNDOT_TDOT units="m**2/s**2">-6.677831910623853E-24</CNDOT_TDOT><CNDOT_NDOT units="m**2/s**2">1.2689161468411387E-26</CNDOT_NDOT><CDRG_R units="m**3/kg">0.0</CDRG_R><CDRG_T units="m**3/kg">0.0</CDRG_T><CDRG_N units="m**3/kg">0.0</CDRG_N><CDRG_RDOT units="m**3/(kg*s)">0.0</CDRG_RDOT><CDRG_TDOT units="m**3/(kg*s)">0.0</CDRG_TDOT><CDRG_NDOT units="m**3/(kg*s)">0.0</CDRG_NDOT><CDRG_DRG units="m**4/kg**2">0.0</CDRG_DRG><CSRP_R units="m**3/kg">0.0</CSRP_R><CSRP_T units="m**3/kg">0.0</CSRP_T><CSRP_N units="m**3/kg">0.0</CSRP_N><CSRP_RDOT units="m**3/(kg*s)">0.0</CSRP_RDOT><CSRP_TDOT units="m**3/(kg*s)">0.0</CSRP_TDOT><CSRP_NDOT units="m**3/(kg*s)">0.0</CSRP_NDOT><CSRP_DRG units="m**4/kg**2">0.0</CSRP_DRG><CSRP_SRP units="m**4/kg**2">0.0</CSRP_SRP></covarianceMatrix></data></segment><segment><metadata><OBJECT>OBJECT2</OBJECT><OBJECT_DESIGNATOR>20923</OBJECT_DESIGNATOR><CATALOG_NAME>SATCAT</CATALOG_NAME><OBJECT_NAME>GORIZONT 21</OBJECT_NAME><INTERNATIONAL_DESIGNATOR>1990-094A</INTERNATIONAL_DESIGNATOR><OBJECT_TYPE>UNKNOWN</OBJECT_TYPE><EPHEMERIS_NAME>almLe20231127_110107Au20231127_055058</EPHEMERIS_NAME><COVARIANCE_METHOD>CALCULATED</COVARIANCE_METHOD><MANEUVERABLE>NO</MANEUVERABLE><REF_FRAME>ITRF</REF_FRAME><GRAVITY_MODEL>EIGEN GL04S: 24D 24O</GRAVITY_MODEL><ATMOSPHERIC_MODEL>NONE</ATMOSPHERIC_MODEL><N_BODY_PERTURBATIONS>MOON,SUN</N_BODY_PERTURBATIONS><SOLAR_RAD_PRESSURE>YES</SOLAR_RAD_PRESSURE><EARTH_TIDES>NO</EARTH_TIDES></metadata><data><odParameters><TIME_LASTOB_START>2023-11-27T05:50:58.039</TIME_LASTOB_START><TIME_LASTOB_END>2023-11-27T05:50:58.039</TIME_LASTOB_END><RECOMMENDED_OD_SPAN units="d">14.0</RECOMMENDED_OD_SPAN><ACTUAL_OD_SPAN units="d">13.417713912037039</ACTUAL_OD_SPAN><OBS_AVAILABLE>899</OBS_AVAILABLE><OBS_USED>899</OBS_USED><TRACKS_AVAILABLE>31</TRACKS_AVAILABLE><TRACKS_USED>31</TRACKS_USED><RESIDUALS_ACCEPTED units="%">100.0</RESIDUALS_ACCEPTED><WEIGHTED_RMS>0.6670651063930926</WEIGHTED_RMS></odParameters><additionalParameters><COMMENT>JAC_LAST_ACC_OB = Greater Than (&gt;) 48 Hours</COMMENT><AREA_PC units="m**2">101.93376457451753</AREA_PC><CR_AREA_OVER_MASS units="m**2/kg">0.0024051136499158273</CR_AREA_OVER_MASS></additionalParameters><stateVector><X units="km">41842.44019119032</X><Y units="km">-5322.836594289101</Y><Z units="km">-17.926175704188957</Z><X_DOT units="km/s">-0.009463020351775868</X_DOT><Y_DOT units="km/s">-0.08844887914825039</Y_DOT><Z_DOT units="km/s">0.7240358248972064</Z_DOT></stateVector><covarianceMatrix><CR_R units="m**2">7994.438433824526</CR_R><CT_R units="m**2">6881.927670603695</CT_R><CT_T units="m**2">7271.489851255845</CT_T><CN_R units="m**2">-258.16588549670456</CN_R><CN_T units="m**2">-187.79769340407898</CN_T><CN_N units="m**2">91.833355187558</CN_N><CRDOT_R units="m**2/s">-0.5880907749537579</CRDOT_R><CRDOT_T units="m**2/s">-0.6094681239774503</CRDOT_T><CRDOT_N units="m**2/s">0.01622761814784532</CRDOT_N><CRDOT_RDOT units="m**2/s**2">5.176435295967746E-5</CRDOT_RDOT><CTDOT_R units="m**2/s">-0.5868004658326269</CTDOT_R><CTDOT_T units="m**2/s">-0.5061433804065103</CTDOT_T><CTDOT_N units="m**2/s">0.018896669827345156</CTDOT_N><CTDOT_RDOT units="m**2/s**2">4.3243896493787184E-5</CTDOT_RDOT><CTDOT_TDOT units="m**2/s**2">4.307265908710699E-5</CTDOT_TDOT><CNDOT_R units="m**2/s">0.004577467924203295</CNDOT_R><CNDOT_T units="m**2/s">0.007235687118750304</CNDOT_T><CNDOT_N units="m**2/s">-0.015142671390834864</CNDOT_N><CNDOT_RDOT units="m**2/s**2">-6.646908238127496E-7</CNDOT_RDOT><CNDOT_TDOT units="m**2/s**2">-3.3743370805059797E-7</CNDOT_TDOT><CNDOT_NDOT units="m**2/s**2">3.6367432379929537E-6</CNDOT_NDOT><CDRG_R units="m**3/kg">0.0</CDRG_R><CDRG_T units="m**3/kg">0.0</CDRG_T><CDRG_N units="m**3/kg">0.0</CDRG_N><CDRG_RDOT units="m**3/(kg*s)">0.0</CDRG_RDOT><CDRG_TDOT units="m**3/(kg*s)">0.0</CDRG_TDOT><CDRG_NDOT units="m**3/(kg*s)">0.0</CDRG_NDOT><CDRG_DRG units="m**4/kg**2">0.0</CDRG_DRG><CSRP_R units="m**3/kg">0.0</CSRP_R><CSRP_T units="m**3/kg">0.0</CSRP_T><CSRP_N units="m**3/kg">0.0</CSRP_N><CSRP_RDOT units="m**3/(kg*s)">0.0</CSRP_RDOT><CSRP_TDOT units="m**3/(kg*s)">0.0</CSRP_TDOT><CSRP_NDOT units="m**3/(kg*s)">0.0</CSRP_NDOT><CSRP_DRG units="m**4/kg**2">0.0</CSRP_DRG><CSRP_SRP units="m**4/kg**2">0.0</CSRP_SRP></covarianceMatrix></data></segment></body></cdm>